CCSDS_OMM_VERS = 2.0
CREATION_DATE  = 
ORIGINATOR     = 

OBJECT_NAME    = STARLINK-35768
OBJECT_ID      = 2025-280M
CENTER_NAME    = EARTH
REF_FRAME      = TEME
TIME_SYSTEM    = UTC
MEAN_ELEMENT_THEORY = SGP/SGP4

EPOCH          = 2025-12-25T19:32:13.477632
MEAN_MOTION    = 15.52549261
ECCENTRICITY   = .0003456
INCLINATION    = 70.0005
RA_OF_ASC_NODE = 162.5798
ARG_OF_PERICENTER = 275.3488
MEAN_ANOMALY   = 84.7305

EPHEMERIS_TYPE = 0
CLASSIFICATION_TYPE = U
NORAD_CAT_ID   = 66832
ELEMENT_SET_NO = 999
REV_AT_EPOCH   = 496
BSTAR          = .1608E-2
MEAN_MOTION_DOT = .100124E-2
MEAN_MOTION_DDOT = 0

CCSDS_OMM_VERS = 2.0
CREATION_DATE  = 
ORIGINATOR     = 

OBJECT_NAME    = STARLINK-35858
OBJECT_ID      = 2025-280N
CENTER_NAME    = EARTH
REF_FRAME      = TEME
TIME_SYSTEM    = UTC
MEAN_ELEMENT_THEORY = SGP/SGP4

EPOCH          = 2025-12-25T19:30:53.978400
MEAN_MOTION    = 15.57235803
ECCENTRICITY   = .0008878
INCLINATION    = 70.0002
RA_OF_ASC_NODE = 162.5768
ARG_OF_PERICENTER = 250.0111
MEAN_ANOMALY   = 110.0123

EPHEMERIS_TYPE = 0
CLASSIFICATION_TYPE = U
NORAD_CAT_ID   = 66833
ELEMENT_SET_NO = 999
REV_AT_EPOCH   = 496
BSTAR          = .64491E-1
MEAN_MOTION_DOT = .5535892E-1
MEAN_MOTION_DDOT = 0

CCSDS_OMM_VERS = 2.0
CREATION_DATE  = 
ORIGINATOR     = 

OBJECT_NAME    = STARLINK-35840
OBJECT_ID      = 2025-280P
CENTER_NAME    = EARTH
REF_FRAME      = TEME
TIME_SYSTEM    = UTC
MEAN_ELEMENT_THEORY = SGP/SGP4

EPOCH          = 2025-12-25T17:58:27.312672
MEAN_MOTION    = 15.52542638
ECCENTRICITY   = .0003221
INCLINATION    = 70.0008
RA_OF_ASC_NODE = 162.7537
ARG_OF_PERICENTER = 276.8838
MEAN_ANOMALY   = 83.1982

EPHEMERIS_TYPE = 0
CLASSIFICATION_TYPE = U
NORAD_CAT_ID   = 66834
ELEMENT_SET_NO = 999
REV_AT_EPOCH   = 495
BSTAR          = .99319E-3
MEAN_MOTION_DOT = .6146E-3
MEAN_MOTION_DDOT = 0

CCSDS_OMM_VERS = 2.0
CREATION_DATE  = 
ORIGINATOR     = 

OBJECT_NAME    = STARLINK-35890
OBJECT_ID      = 2025-280Q
CENTER_NAME    = EARTH
REF_FRAME      = TEME
TIME_SYSTEM    = UTC
MEAN_ELEMENT_THEORY = SGP/SGP4

EPOCH          = 2025-12-25T19:30:44.496000
MEAN_MOTION    = 15.52557752
ECCENTRICITY   = .0003424
INCLINATION    = 70.0006
RA_OF_ASC_NODE = 162.5756
ARG_OF_PERICENTER = 275.6014
MEAN_ANOMALY   = 84.4782

EPHEMERIS_TYPE = 0
CLASSIFICATION_TYPE = U
NORAD_CAT_ID   = 66835
ELEMENT_SET_NO = 999
REV_AT_EPOCH   = 496
BSTAR          = .16585E-2
MEAN_MOTION_DOT = .103344E-2
MEAN_MOTION_DDOT = 0

CCSDS_OMM_VERS = 2.0
CREATION_DATE  = 
ORIGINATOR     = 

OBJECT_NAME    = STARLINK-35838
OBJECT_ID      = 2025-280R
CENTER_NAME    = EARTH
REF_FRAME      = TEME
TIME_SYSTEM    = UTC
MEAN_ELEMENT_THEORY = SGP/SGP4

EPOCH          = 2025-12-25T19:30:14.819328
MEAN_MOTION    = 15.52556043
ECCENTRICITY   = .0003481
INCLINATION    = 70.0008
RA_OF_ASC_NODE = 162.5739
ARG_OF_PERICENTER = 275.1828
MEAN_ANOMALY   = 84.8962

EPHEMERIS_TYPE = 0
CLASSIFICATION_TYPE = U
NORAD_CAT_ID   = 66836
ELEMENT_SET_NO = 999
REV_AT_EPOCH   = 496
BSTAR          = .15486E-2
MEAN_MOTION_DOT = .96398E-3
MEAN_MOTION_DDOT = 0

CCSDS_OMM_VERS = 2.0
CREATION_DATE  = 
ORIGINATOR     = 

OBJECT_NAME    = STARLINK-35729
OBJECT_ID      = 2025-280S
CENTER_NAME    = EARTH
REF_FRAME      = TEME
TIME_SYSTEM    = UTC
MEAN_ELEMENT_THEORY = SGP/SGP4

EPOCH          = 2025-12-25T19:29:45.104640
MEAN_MOTION    = 15.52561593
ECCENTRICITY   = .0003619
INCLINATION    = 70.0008
RA_OF_ASC_NODE = 162.5726
ARG_OF_PERICENTER = 274.5095
MEAN_ANOMALY   = 85.5678

EPHEMERIS_TYPE = 0
CLASSIFICATION_TYPE = U
NORAD_CAT_ID   = 66837
ELEMENT_SET_NO = 999
REV_AT_EPOCH   = 496
BSTAR          = .15748E-2
MEAN_MOTION_DOT = .9807E-3
MEAN_MOTION_DDOT = 0

CCSDS_OMM_VERS = 2.0
CREATION_DATE  = 
ORIGINATOR     = 

OBJECT_NAME    = STARLINK-35886
OBJECT_ID      = 2025-280T
CENTER_NAME    = EARTH
REF_FRAME      = TEME
TIME_SYSTEM    = UTC
MEAN_ELEMENT_THEORY = SGP/SGP4

EPOCH          = 2025-12-25T19:28:45.821280
MEAN_MOTION    = 15.52523390
ECCENTRICITY   = .0003362
INCLINATION    = 70.0010
RA_OF_ASC_NODE = 162.5696
ARG_OF_PERICENTER = 273.2183
MEAN_ANOMALY   = 86.8619

EPHEMERIS_TYPE = 0
CLASSIFICATION_TYPE = U
NORAD_CAT_ID   = 66838
ELEMENT_SET_NO = 999
REV_AT_EPOCH   = 496
BSTAR          = .85055E-3
MEAN_MOTION_DOT = .52514E-3
MEAN_MOTION_DDOT = 0

CCSDS_OMM_VERS = 2.0
CREATION_DATE  = 
ORIGINATOR     = 

OBJECT_NAME    = STARLINK-35717
OBJECT_ID      = 2025-280U
CENTER_NAME    = EARTH
REF_FRAME      = TEME
TIME_SYSTEM    = UTC
MEAN_ELEMENT_THEORY = SGP/SGP4

EPOCH          = 2025-12-25T19:29:15.572256
MEAN_MOTION    = 15.52543074
ECCENTRICITY   = .0003337
INCLINATION    = 70.0009
RA_OF_ASC_NODE = 162.5710
ARG_OF_PERICENTER = 272.1705
MEAN_ANOMALY   = 87.9100

EPHEMERIS_TYPE = 0
CLASSIFICATION_TYPE = U
NORAD_CAT_ID   = 66839
ELEMENT_SET_NO = 999
REV_AT_EPOCH   = 496
BSTAR          = .10471E-2
MEAN_MOTION_DOT = .64834E-3
MEAN_MOTION_DDOT = 0

CCSDS_OMM_VERS = 2.0
CREATION_DATE  = 
ORIGINATOR     = 

OBJECT_NAME    = STARLINK-35837
OBJECT_ID      = 2025-280V
CENTER_NAME    = EARTH
REF_FRAME      = TEME
TIME_SYSTEM    = UTC
MEAN_ELEMENT_THEORY = SGP/SGP4

EPOCH          = 2025-12-25T19:28:16.239648
MEAN_MOTION    = 15.52554185
ECCENTRICITY   = .0003313
INCLINATION    = 70.0009
RA_OF_ASC_NODE = 162.5688
ARG_OF_PERICENTER = 272.5156
MEAN_ANOMALY   = 87.5652

EPHEMERIS_TYPE = 0
CLASSIFICATION_TYPE = U
NORAD_CAT_ID   = 66840
ELEMENT_SET_NO = 999
REV_AT_EPOCH   = 496
BSTAR          = .12358E-2
MEAN_MOTION_DOT = .76693E-3
MEAN_MOTION_DDOT = 0

CCSDS_OMM_VERS = 2.0
CREATION_DATE  = 
ORIGINATOR     = 

OBJECT_NAME    = STARLINK-35715
OBJECT_ID      = 2025-280W
CENTER_NAME    = EARTH
REF_FRAME      = TEME
TIME_SYSTEM    = UTC
MEAN_ELEMENT_THEORY = SGP/SGP4

EPOCH          = 2025-12-25T17:54:59.759136
MEAN_MOTION    = 15.52550254
ECCENTRICITY   = .0003385
INCLINATION    = 70.0008
RA_OF_ASC_NODE = 162.7437
ARG_OF_PERICENTER = 274.3901
MEAN_ANOMALY   = 85.6899

EPHEMERIS_TYPE = 0
CLASSIFICATION_TYPE = U
NORAD_CAT_ID   = 66841
ELEMENT_SET_NO = 999
REV_AT_EPOCH   = 495
BSTAR          = .12512E-2
MEAN_MOTION_DOT = .77649E-3
MEAN_MOTION_DDOT = 0

CCSDS_OMM_VERS = 2.0
CREATION_DATE  = 
ORIGINATOR     = 

OBJECT_NAME    = STARLINK-35769
OBJECT_ID      = 2025-280X
CENTER_NAME    = EARTH
REF_FRAME      = TEME
TIME_SYSTEM    = UTC
MEAN_ELEMENT_THEORY = SGP/SGP4

EPOCH          = 2025-12-25T16:21:43.530048
MEAN_MOTION    = 15.52546492
ECCENTRICITY   = .000316
INCLINATION    = 70.0007
RA_OF_ASC_NODE = 162.9191
ARG_OF_PERICENTER = 274.6719
MEAN_ANOMALY   = 85.4107

EPHEMERIS_TYPE = 0
CLASSIFICATION_TYPE = U
NORAD_CAT_ID   = 66842
ELEMENT_SET_NO = 999
REV_AT_EPOCH   = 494
BSTAR          = .15379E-2
MEAN_MOTION_DOT = .95683E-3
MEAN_MOTION_DDOT = 0

CCSDS_OMM_VERS = 2.0
CREATION_DATE  = 
ORIGINATOR     = 

OBJECT_NAME    = STARLINK-35997
OBJECT_ID      = 2025-280Y
CENTER_NAME    = EARTH
REF_FRAME      = TEME
TIME_SYSTEM    = UTC
MEAN_ELEMENT_THEORY = SGP/SGP4

EPOCH          = 2025-12-25T19:26:17.589120
MEAN_MOTION    = 15.52542728
ECCENTRICITY   = .0003582
INCLINATION    = 70.0010
RA_OF_ASC_NODE = 162.5624
ARG_OF_PERICENTER = 272.5949
MEAN_ANOMALY   = 87.4827

EPHEMERIS_TYPE = 0
CLASSIFICATION_TYPE = U
NORAD_CAT_ID   = 66843
ELEMENT_SET_NO = 999
REV_AT_EPOCH   = 496
BSTAR          = .13079E-2
MEAN_MOTION_DOT = .81195E-3
MEAN_MOTION_DDOT = 0

