STARLINK-35768          
1 66832U 25280M   25359.81404488  .00100124  00000+0  16080-2 0  9997
2 66832  70.0005 162.5798 0003456 275.3488  84.7305 15.52549261  4968
STARLINK-35858          
1 66833U 25280N   25359.81312475  .05535892  00000+0  64491-1 0  9999
2 66833  70.0002 162.5768 0008878 250.0111 110.0123 15.57235803  4969
STARLINK-35840          
1 66834U 25280P   25359.74892723  .00061460  00000+0  99319-3 0  9990
2 66834  70.0008 162.7537 0003221 276.8838  83.1982 15.52542638  4955
STARLINK-35890          
1 66835U 25280Q   25359.81301500  .00103344  00000+0  16585-2 0  9998
2 66835  70.0006 162.5756 0003424 275.6014  84.4782 15.52557752  4969
STARLINK-35838          
1 66836U 25280R   25359.81267152  .00096398  00000+0  15486-2 0  9992
2 66836  70.0008 162.5739 0003481 275.1828  84.8962 15.52556043  4960
STARLINK-35729          
1 66837U 25280S   25359.81232760  .00098070  00000+0  15748-2 0  9990
2 66837  70.0008 162.5726 0003619 274.5095  85.5678 15.52561593  4967
STARLINK-35886          
1 66838U 25280T   25359.81164145  .00052514  00000+0  85055-3 0  9994
2 66838  70.0010 162.5696 0003362 273.2183  86.8619 15.52523390  4968
STARLINK-35717          
1 66839U 25280U   25359.81198579  .00064834  00000+0  10471-2 0  9990
2 66839  70.0009 162.5710 0003337 272.1705  87.9100 15.52543074  4962
STARLINK-35837          
1 66840U 25280V   25359.81129907  .00076693  00000+0  12358-2 0  9993
2 66840  70.0009 162.5688 0003313 272.5156  87.5652 15.52554185  4969
STARLINK-35715          
1 66841U 25280W   25359.74652499  .00077649  00000+0  12512-2 0  9997
2 66841  70.0008 162.7437 0003385 274.3901  85.6899 15.52550254  4954
STARLINK-35769          
1 66842U 25280X   25359.68175382  .00095683  00000+0  15379-2 0  9994
2 66842  70.0007 162.9191 0003160 274.6719  85.4107 15.52546492  4942
STARLINK-35997          
1 66843U 25280Y   25359.80992580  .00081195  00000+0  13079-2 0  9994
2 66843  70.0010 162.5624 0003582 272.5949  87.4827 15.52542728  4965
